1 44096U 19018U   21083.71849159  .00002269  00000-0  95642-4 0  9999
2 44096  97.3735 146.6818 0009090 273.7461  86.2737 15.24323367110091
1 44096U 19018U   21084.11236163  .00002102  00000-0  88802-4 0  9995
2 44096  97.3733 147.0693 0009094 272.0961  87.9235 15.24324508110141
1 44096U 19018U   21084.24365116  .00002378  00000-0  10008-3 0  9997
2 44096  97.3734 147.1985 0009096 271.5421  88.4774 15.24326125110167
1 44096U 19018U   21084.24365116  .00002378  00000-0  10008-3 0  9997
2 44096  97.3734 147.1985 0009096 271.5421  88.4774 15.24326125110178
1 44096U 19018U   21085.16267851  .00002409  00000-0  10131-3 0  9998
2 44096  97.3731 148.1027 0009109 267.6657  92.3538 15.24330463110302
1 44096U 19018U   21085.22832321  .00002422  00000-0  10185-3 0  9999
2 44096  97.3731 148.1673 0009109 267.3710  92.6485 15.24330812110319
1 44096U 19018U   21085.22832321  .00002422  00000-0  10185-3 0  9999
2 44096  97.3731 148.1673 0009109 267.3710  92.6485 15.24330812110320
1 44096U 19018U   21085.75348052  .00002497  00000-0  10491-3 0  9992
2 44096  97.3729 148.6839 0009114 265.1404  94.8793 15.24333517110396
1 44096U 19018U   21085.88476974  .00002524  00000-0  10601-3 0  9995
2 44096  97.3728 148.8131 0009116 264.5812  95.4386 15.24334164110428
1 44096U 19018U   21086.14734785  .00002554  00000-0  10722-3 0  9999
2 44096  97.3727 149.0714 0009122 263.5049  96.5150 15.24335640110459
1 44096U 19018U   21086.40992606  .00002431  00000-0  10222-3 0  9995
2 44096  97.3727 149.3298 0009129 262.4375  97.5825 15.24336402110497
1 44096U 19018U   21086.47557061  .00002365  00000-0  99511-4 0  9999
2 44096  97.3727 149.3944 0009127 262.1598  97.8603 15.24336475110517
1 44096U 19018U   21086.67250401  .00002337  00000-0  98373-4 0  9993
2 44096  97.3726 149.5881 0009129 261.3556  98.6647 15.24337350110537
1 44096U 19018U   21086.86943732  .00002336  00000-0  98326-4 0  9997
2 44096  97.3726 149.7819 0009139 260.5258  99.4947 15.24338159110575
1 44096U 19018U   21087.13201502  .00002177  00000-0  91814-4 0  9998
2 44096  97.3725 150.0402 0009148 259.4454 100.5753 15.24338818110607
1 44096U 19018U   21087.39459239  .00002217  00000-0  93433-4 0  9992
2 44096  97.3725 150.2985 0009151 258.3201 101.7009 15.24340070110641
1 44096U 19018U   21087.46023664  .00002258  00000-0  95106-4 0  9993
2 44096  97.3724 150.3631 0009152 258.0541 101.9671 15.24340516110668
1 44096U 19018U   21087.72281385  .00002214  00000-0  93318-4 0  9993
2 44096  97.3723 150.6215 0009159 256.9694 103.0521 15.24341495110698
1 44096U 19018U   21087.72281385  .00002214  00000-0  93318-4 0  9993
2 44096  97.3723 150.6215 0009159 256.9694 103.0521 15.24341495110700
1 44096U 19018U   21088.24796812  .00001884  00000-0  79844-4 0  9997
2 44096  97.3721 151.1381 0009176 254.7870 105.2353 15.24342398110787
1 44096U 19018U   21088.44490071  .00001902  00000-0  80579-4 0  9995
2 44096  97.3721 151.3319 0009180 253.9584 106.0642 15.24343188110809
1 44096U 19018U   21088.77312174  .00001971  00000-0  83408-4 0  9998
2 44096  97.3723 151.6547 0009219 252.9061 107.1167 15.24344584110859
1 44096U 19018U   21088.90441040  .00001814  00000-0  76971-4 0  9991
2 44096  97.3722 151.7839 0009228 252.3100 107.7130 15.24344161110881
1 44096U 19018U   21089.16698679  .00001809  00000-0  76785-4 0  9999
2 44096  97.3722 152.0423 0009238 251.2561 108.7674 15.24345206110913
1 44096U 19018U   21089.42956305  .00001831  00000-0  77675-4 0  9995
2 44096  97.3722 152.3006 0009247 250.1503 109.8739 15.24346315110957
1 44096U 19018U   21089.42956305  .00001831  00000-0  77675-4 0  9995
2 44096  97.3722 152.3006 0009247 250.1503 109.8739 15.24346315110968
1 44096U 19018U   21089.82342760  .00001686  00000-0  71762-4 0  9992
2 44096  97.3721 152.6881 0009264 248.5572 111.4678 15.24346957111017
1 44096U 19018U   21090.15164757  .00001657  00000-0  70575-4 0  9997
2 44096  97.3720 153.0110 0009281 247.2269 112.7989 15.24348058111062
1 44096U 19018U   21090.21729146  .00001671  00000-0  71145-4 0  9993
2 44096  97.3721 153.0756 0009285 246.9489 113.0770 15.24348392111077
1 44096U 19018U   21090.21729146  .00001671  00000-0  71145-4 0  9993
2 44096  97.3721 153.0756 0009285 246.9489 113.0770 15.24348392111088
1 44096U 19018U   21090.74244290  .00001620  00000-0  69064-4 0  9994
2 44096  97.3720 153.5922 0009300 244.7783 115.2491 15.24349981111155
1 44096U 19018U   21091.20194940  .00001808  00000-0  76711-4 0  9997
2 44096  97.3719 154.0443 0009324 242.9515 117.0772 15.24352734111226
1 44096U 19018U   21091.20194940  .00001808  00000-0  76711-4 0  9997
2 44096  97.3719 154.0443 0009324 242.9515 117.0772 15.24352734111237
1 44096U 19018U   21091.72709957  .00001815  00000-0  76992-4 0  9993
2 44096  97.3718 154.5610 0009348 240.7664 119.2640 15.24354634111301
1 44096U 19018U   21091.72709957  .00001815  00000-0  76992-4 0  9993
2 44096  97.3718 154.5610 0009348 240.7664 119.2640 15.24354634111312
1 44096U 19018U   21092.12096207  .00001737  00000-0  73831-4 0  9997
2 44096  97.3717 154.9485 0009376 239.1803 120.8512 15.24355537111367
1 44096U 19018U   21092.12096207  .00001737  00000-0  73831-4 0  9997
2 44096  97.3717 154.9485 0009376 239.1803 120.8512 15.24355537111378
1 44096U 19018U   21092.71175521  .00001652  00000-0  70334-4 0  9990
2 44096  97.3716 155.5297 0009413 236.7458 123.2878 15.24357013111458
1 44096U 19018U   21092.90868603  .00001709  00000-0  72649-4 0  9995
2 44096  97.3716 155.7234 0009428 235.9425 124.0918 15.24357943111481
1 44096U 19018U   21092.90868603  .00001709  00000-0  72649-4 0  9995
2 44096  97.3716 155.7234 0009428 235.9425 124.0918 15.24357943111492
1 44096U 19018U   21093.43383417  .00001711  00000-0  72731-4 0  9994
2 44096  97.3715 156.2401 0009467 233.8467 126.1896 15.24359862111567
1 44096U 19018U   21093.43383417  .00001711  00000-0  72731-4 0  9994
2 44096  97.3715 156.2401 0009467 233.8467 126.1896 15.24359862111578
1 44096U 19018U   21093.76205184  .00001633  00000-0  69551-4 0  9993
2 44096  97.3714 156.5630 0009489 232.5302 127.5073 15.24360493111611
1 44096U 19018U   21093.89333898  .00001556  00000-0  66396-4 0  9999
2 44096  97.3714 156.6921 0009499 231.9971 128.0410 15.24360437111643
1 44096U 19018U   21094.09026928  .00001567  00000-0  66854-4 0  9996
2 44096  97.3713 156.8859 0009513 231.2404 128.7984 15.24361162111666
1 44096U 19018U   21094.15591269  .00001573  00000-0  67091-4 0  9999
2 44096  97.3713 156.9504 0009518 230.9752 129.0639 15.24361417111676
1 44096U 19018U   21094.15591269  .00001573  00000-0  67091-4 0  9999
2 44096  97.3713 156.9504 0009518 230.9752 129.0639 15.24361417111687
1 44096U 19018U   21094.68106003  .00001486  00000-0  63561-4 0  9996
2 44096  97.3713 157.4671 0009556 228.8692 131.1722 15.24362631111753
1 44096U 19018U   21094.68106003  .00001486  00000-0  63561-4 0  9996
2 44096  97.3713 157.4671 0009556 228.8692 131.1722 15.24362631111764
1 44096U 19018U   21094.94363363  .00001430  00000-0  61260-4 0  9992
2 44096  97.3712 157.7254 0009577 227.8360 132.2065 15.24363086111797
1 44096U 19018U   21095.20620688  .00001410  00000-0  60427-4 0  9990
2 44096  97.3712 157.9837 0009596 226.8039 133.2398 15.24363843111835
1 44096U 19018U   21095.20620688  .00001410  00000-0  60427-4 0  9990
2 44096  97.3712 157.9837 0009596 226.8039 133.2398 15.24363843111846
1 44096U 19018U   21095.60006679  .00001320  00000-0  56766-4 0  9993
2 44096  97.3711 158.3711 0009629 225.2084 134.8372 15.24364544111894
1 44096U 19018U   21095.92828309  .00001341  00000-0  57606-4 0  9997
2 44096  97.3710 158.6940 0009654 223.9299 136.1172 15.24365621111947
1 44096U 19018U   21095.92828309  .00001341  00000-0  57606-4 0  9997
2 44096  97.3710 158.6940 0009654 223.9299 136.1172 15.24365621111958
1 44096U 19018U   21096.05956949  .00001336  00000-0  57426-4 0  9998
2 44096  97.3710 158.8232 0009666 223.4343 136.6134 15.24366031111962
1 44096U 19018U   21096.05956949  .00001336  00000-0  57426-4 0  9998
2 44096  97.3710 158.8232 0009666 223.4343 136.6134 15.24366031111973
1 44096U 19018U   21096.65035828  .00001258  00000-0  54214-4 0  9993
2 44096  97.3709 159.4043 0009718 221.0765 138.9741 15.24367380112066
1 44096U 19018U   21097.10986016  .00001261  00000-0  54345-4 0  9997
2 44096  97.3708 159.8563 0009757 219.3398 140.7132 15.24368745112129
1 44096U 19018U   21097.10986016  .00001261  00000-0  54345-4 0  9997
2 44096  97.3708 159.8563 0009757 219.3398 140.7132 15.24368745112130
1 44096U 19018U   21097.43807552  .00001253  00000-0  54028-4 0  9999
2 44096  97.3708 160.1792 0009792 218.0422 142.0125 15.24369686112178
1 44096U 19018U   21097.70064768  .00001236  00000-0  53312-4 0  9999
2 44096  97.3707 160.4375 0009814 217.0261 143.0300 15.24370387112213
1 44096U 19018U   21097.70064768  .00001236  00000-0  53312-4 0  9999
2 44096  97.3707 160.4375 0009814 217.0261 143.0300 15.24370387112224
1 44096U 19018U   21098.22579079  .00001585  00000-0  67559-4 0  9998
2 44096  97.3706 160.9541 0009853 215.0682 144.9908 15.24374028112298
1 44096U 19018U   21098.22579079  .00001585  00000-0  67559-4 0  9998
2 44096  97.3706 160.9541 0009853 215.0682 144.9908 15.24374028112300
1 44096U 19018U   21098.75093461  .00001415  00000-0  60629-4 0  9995
2 44096  97.3705 161.4706 0009897 213.0108 147.0513 15.24374507112372
1 44096U 19018U   21098.75093461  .00001415  00000-0  60629-4 0  9995
2 44096  97.3705 161.4706 0009897 213.0108 147.0513 15.24374507112383
1 44096U 19018U   21099.14479189  .00001398  00000-0  59908-4 0  9992
2 44096  97.3704 161.8580 0009932 211.5240 148.5404 15.24375524112437
1 44096U 19018U   21099.21043472  .00001399  00000-0  59977-4 0  9999
2 44096  97.3704 161.9226 0009942 211.2661 148.7987 15.24375725112442
1 44096U 19018U   21099.40736323  .00001393  00000-0  59728-4 0  9992
2 44096  97.3704 162.1163 0009961 210.4824 149.5836 15.24376238112484
1 44096U 19018U   21099.73557752  .00001329  00000-0  57103-4 0  9999
2 44096  97.3703 162.4392 0009990 209.2521 150.8158 15.24376729112524
